{"type": "FeatureCollection", "features": [ {"type": "Feature", "properties": {"norad_id": 39122, "name": "EUTELSAT 117 WEST A", "group": "eutelsat", "lat": 0.029194841472150696, "lon": 34.541450232053435, "alt_km": 35791.91026630983, "timestamp": "2025-12-24T03:53:29.313733+00:00", "meta": {"OBJECT_NAME": "EUTELSAT 117 WEST A", "OBJECT_ID": "2013-012A", "EPOCH": "2025-12-23T16:00:05.299200", "MEAN_MOTION": 1.00270813, "ECCENTRICITY": 0.0002685, "INCLINATION": 0.0226, "RA_OF_ASC_NODE": 313.4585, "ARG_OF_PERICENTER": 321.6945, "MEAN_ANOMALY": 300.5313, "EPHEMERIS_TYPE": 0, "CLASSIFICATION_TYPE": "U", "NORAD_CAT_ID": 39122, "ELEMENT_SET_NO": 999, "REV_AT_EPOCH": 4667, "BSTAR": 0, "MEAN_MOTION_DOT": 8e-08, "MEAN_MOTION_DDOT": 0}, "tle": {"line1": "1 39122U 13012A   25357.66672800  .00000008  00000+0  00000+0 0  9997", "line2": "2 39122   0.0226 313.4585 0002685 321.6945 300.5313  1.00270813 46679"}}, "geometry": {"type": "Point", "coordinates": [34.541450232053435, 0.029194841472150696]}}, {"type": "Feature", "properties": {"norad_id": 39163, "name": "EUTELSAT 7B", "group": "eutelsat", "lat": 0.04302092220324514, "lon": 158.2848691391635, "alt_km": 35804.421954889585, "timestamp": "2025-12-24T03:53:29.313745+00:00", "meta": {"OBJECT_NAME": "EUTELSAT 7B", "OBJECT_ID": "2013-022A", "EPOCH": "2025-12-23T18:18:07.081344", "MEAN_MOTION": 1.0027145, "ECCENTRICITY": 0.0004513, "INCLINATION": 0.0656, "RA_OF_ASC_NODE": 6.4848, "ARG_OF_PERICENTER": 316.0152, "MEAN_ANOMALY": 51.5695, "EPHEMERIS_TYPE": 0, "CLASSIFICATION_TYPE": "U", "NORAD_CAT_ID": 39163, "ELEMENT_SET_NO": 999, "REV_AT_EPOCH": 4618, "BSTAR": 0, "MEAN_MOTION_DOT": 6.9e-07, "MEAN_MOTION_DDOT": 0}, "tle": {"line1": "1 39163U 13022A   25357.76258196  .00000069  00000+0  00000+0 0  9999", "line2": "2 39163   0.0656   6.4848 0004513 316.0152  51.5695  1.00271450 46182"}}, "geometry": {"type": "Point", "coordinates": [158.2848691391635, 0.04302092220324514]}}, {"type": "Feature", "properties": {"norad_id": 39612, "name": "EXPRESS-AT1", "group": "eutelsat", "lat": -0.013694556702980759, "lon": -152.68453234555605, "alt_km": 35785.9045616466, "timestamp": "2025-12-24T03:53:29.313757+00:00", "meta": {"OBJECT_NAME": "EXPRESS-AT1", "OBJECT_ID": "2014-010A", "EPOCH": "2025-12-23T20:45:38.572128", "MEAN_MOTION": 1.0027104, "ECCENTRICITY": 9.39e-05, "INCLINATION": 0.0153, "RA_OF_ASC_NODE": 287.9402, "ARG_OF_PERICENTER": 194.834, "MEAN_ANOMALY": 337.2835, "EPHEMERIS_TYPE": 0, "CLASSIFICATION_TYPE": "U", "NORAD_CAT_ID": 39612, "ELEMENT_SET_NO": 999, "REV_AT_EPOCH": 4306, "BSTAR": 0, "MEAN_MOTION_DOT": 1e-06, "MEAN_MOTION_DDOT": 0}, "tle": {"line1": "1 39612U 14010A   25357.86502977  .00000100  00000+0  00000+0 0  9992", "line2": "2 39612   0.0153 287.9402 0000939 194.8340 337.2835  1.00271040 43063"}}, "geometry": {"type": "Point", "coordinates": [-152.68453234555605, -0.013694556702980759]}}, {"type": "Feature", "properties": {"norad_id": 39613, "name": "EXPRESS-AT2", "group": "eutelsat", "lat": -0.015309737936336184, "lon": -68.82769059709727, "alt_km": 35779.35338164855, "timestamp": "2025-12-24T03:53:29.313770+00:00", "meta": {"OBJECT_NAME": "EXPRESS-AT2", "OBJECT_ID": "2014-010B", "EPOCH": "2025-12-23T20:38:46.260960", "MEAN_MOTION": 1.00273191, "ECCENTRICITY": 0.0001518, "INCLINATION": 0.0123, "RA_OF_ASC_NODE": 303.5247, "ARG_OF_PERICENTER": 340.0899, "MEAN_ANOMALY": 258.5835, "EPHEMERIS_TYPE": 0, "CLASSIFICATION_TYPE": "U", "NORAD_CAT_ID": 39613, "ELEMENT_SET_NO": 999, "REV_AT_EPOCH": 4274, "BSTAR": 0, "MEAN_MOTION_DOT": -2.6e-06, "MEAN_MOTION_DDOT": 0}, "tle": {"line1": "1 39613U 14010B   25357.86025765 -.00000260  00000+0  00000+0 0  9996", "line2": "2 39613   0.0123 303.5247 0001518 340.0899 258.5835  1.00273191 42749"}}, "geometry": {"type": "Point", "coordinates": [-68.82769059709727, -0.015309737936336184]}}, {"type": "Feature", "properties": {"norad_id": 39773, "name": "EUTELSAT 3B", "group": "eutelsat", "lat": 0.024557836547678204, "lon": 154.36877254845675, "alt_km": 35781.90123767051, "timestamp": "2025-12-24T03:53:29.313795+00:00", "meta": {"OBJECT_NAME": "EUTELSAT 3B", "OBJECT_ID": "2014-030A", "EPOCH": "2025-12-23T18:16:59.686752", "MEAN_MOTION": 1.00272589, "ECCENTRICITY": 0.0004296, "INCLINATION": 0.0616, "RA_OF_ASC_NODE": 346.5658, "ARG_OF_PERICENTER": 245.0173, "MEAN_ANOMALY": 138.3211, "EPHEMERIS_TYPE": 0, "CLASSIFICATION_TYPE": "U", "NORAD_CAT_ID": 39773, "ELEMENT_SET_NO": 999, "REV_AT_EPOCH": 4230, "BSTAR": 0, "MEAN_MOTION_DOT": 4.1e-07, "MEAN_MOTION_DDOT": 0}, "tle": {"line1": "1 39773U 14030A   25357.76180193  .00000041  00000+0  00000+0 0  9997", "line2": "2 39773   0.0616 346.5658 0004296 245.0173 138.3211  1.00272589 42306"}}, "geometry": {"type": "Point", "coordinates": [154.36877254845675, 0.024557836547678204]}}, {"type": "Feature", "properties": {"norad_id": 40425, "name": "EUTELSAT 115 WEST B", "group": "eutelsat", "lat": -0.005345007678051825, "lon": 36.386560995364526, "alt_km": 35786.14379195385, "timestamp": "2025-12-24T03:53:29.313820+00:00", "meta": {"OBJECT_NAME": "EUTELSAT 115 WEST B", "OBJECT_ID": "2015-010B", "EPOCH": "2025-12-23T12:35:11.984928", "MEAN_MOTION": 1.00271081, "ECCENTRICITY": 1.67e-05, "INCLINATION": 0.0089, "RA_OF_ASC_NODE": 154.9718, "ARG_OF_PERICENTER": 161.1699, "MEAN_ANOMALY": 210.0501, "EPHEMERIS_TYPE": 0, "CLASSIFICATION_TYPE": "U", "NORAD_CAT_ID": 40425, "ELEMENT_SET_NO": 999, "REV_AT_EPOCH": 3963, "BSTAR": 0, "MEAN_MOTION_DOT": -4e-08, "MEAN_MOTION_DDOT": 0}, "tle": {"line1": "1 40425U 15010B   25357.52444427 -.00000004  00000+0  00000+0 0  9999", "line2": "2 40425   0.0089 154.9718 0000167 161.1699 210.0501  1.00271081 39636"}}, "geometry": {"type": "Point", "coordinates": [36.386560995364526, -0.005345007678051825]}}, {"type": "Feature", "properties": {"norad_id": 40875, "name": "EUTELSAT 8 WEST B", "group": "eutelsat", "lat": 0.05985475022812519, "lon": 143.26807816929394, "alt_km": 35797.81143852964, "timestamp": "2025-12-24T03:53:29.313834+00:00", "meta": {"OBJECT_NAME": "EUTELSAT 8 WEST B", "OBJECT_ID": "2015-039B", "EPOCH": "2025-12-23T18:13:52.487328", "MEAN_MOTION": 1.00271237, "ECCENTRICITY": 0.0004241, "INCLINATION": 0.0639, "RA_OF_ASC_NODE": 5.8172, "ARG_OF_PERICENTER": 267.6018, "MEAN_ANOMALY": 84.5934, "EPHEMERIS_TYPE": 0, "CLASSIFICATION_TYPE": "U", "NORAD_CAT_ID": 40875, "ELEMENT_SET_NO": 999, "REV_AT_EPOCH": 3789, "BSTAR": 0, "MEAN_MOTION_DOT": -4.5e-07, "MEAN_MOTION_DDOT": 0}, "tle": {"line1": "1 40875U 15039B   25357.75963527 -.00000045  00000+0  00000+0 0  9996", "line2": "2 40875   0.0639   5.8172 0004241 267.6018  84.5934  1.00271237 37891"}}, "geometry": {"type": "Point", "coordinates": [143.26807816929394, 0.05985475022812519]}}, {"type": "Feature", "properties": {"norad_id": 41310, "name": "EUTELSAT 9B", "group": "eutelsat", "lat": 0.03179035862117874, "lon": 160.27291206266344, "alt_km": 35792.55648234479, "timestamp": "2025-12-24T03:53:29.313847+00:00", "meta": {"OBJECT_NAME": "EUTELSAT 9B", "OBJECT_ID": "2016-005A", "EPOCH": "2025-12-23T18:18:37.031904", "MEAN_MOTION": 1.0027281, "ECCENTRICITY": 0.0004488, "INCLINATION": 0.0221, "RA_OF_ASC_NODE": 35.9502, "ARG_OF_PERICENTER": 235.2483, "MEAN_ANOMALY": 105.0162, "EPHEMERIS_TYPE": 0, "CLASSIFICATION_TYPE": "U", "NORAD_CAT_ID": 41310, "ELEMENT_SET_NO": 999, "REV_AT_EPOCH": 3635, "BSTAR": 0, "MEAN_MOTION_DOT": 8.3e-07, "MEAN_MOTION_DDOT": 0}, "tle": {"line1": "1 41310U 16005A   25357.76292861  .00000083  00000+0  00000+0 0  9993", "line2": "2 41310   0.0221  35.9502 0004488 235.2483 105.0162  1.00272810 36354"}}, "geometry": {"type": "Point", "coordinates": [160.27291206266344, 0.03179035862117874]}}, {"type": "Feature", "properties": {"norad_id": 41382, "name": "EUTELSAT 65 WEST A", "group": "eutelsat", "lat": 0.06829027008046876, "lon": 86.12908180485039, "alt_km": 35795.16934953823, "timestamp": "2025-12-24T03:53:29.313858+00:00", "meta": {"OBJECT_NAME": "EUTELSAT 65 WEST A", "OBJECT_ID": "2016-014A", "EPOCH": "2025-12-23T17:57:31.551840", "MEAN_MOTION": 1.0027257, "ECCENTRICITY": 0.0002219, "INCLINATION": 0.0496, "RA_OF_ASC_NODE": 340.1512, "ARG_OF_PERICENTER": 295.5238, "MEAN_ANOMALY": 21.0568, "EPHEMERIS_TYPE": 0, "CLASSIFICATION_TYPE": "U", "NORAD_CAT_ID": 41382, "ELEMENT_SET_NO": 999, "REV_AT_EPOCH": 3577, "BSTAR": 0, "MEAN_MOTION_DOT": -2.55e-06, "MEAN_MOTION_DDOT": 0}, "tle": {"line1": "1 41382U 16014A   25357.74828185 -.00000255  00000+0  00000+0 0  9996", "line2": "2 41382   0.0496 340.1512 0002219 295.5238  21.0568  1.00272570 35771"}}, "geometry": {"type": "Point", "coordinates": [86.12908180485039, 0.06829027008046876]}}, {"type": "Feature", "properties": {"norad_id": 41589, "name": "EUTELSAT 117 WEST B", "group": "eutelsat", "lat": -0.003834000413996387, "lon": 34.29389008413282, "alt_km": 35786.79798896918, "timestamp": "2025-12-24T03:53:29.313870+00:00", "meta": {"OBJECT_NAME": "EUTELSAT 117 WEST B", "OBJECT_ID": "2016-038B", "EPOCH": "2025-12-23T11:38:38.459904", "MEAN_MOTION": 1.00269065, "ECCENTRICITY": 2.68e-05, "INCLINATION": 0.0101, "RA_OF_ASC_NODE": 152.0489, "ARG_OF_PERICENTER": 153.5082, "MEAN_ANOMALY": 204.3674, "EPHEMERIS_TYPE": 0, "CLASSIFICATION_TYPE": "U", "NORAD_CAT_ID": 41589, "ELEMENT_SET_NO": 999, "REV_AT_EPOCH": 3490, "BSTAR": 0, "MEAN_MOTION_DOT": 1e-07, "MEAN_MOTION_DDOT": 0}, "tle": {"line1": "1 41589U 16038B   25357.48516736  .00000010  00000+0  00000+0 0  9996", "line2": "2 41589   0.0101 152.0489 0000268 153.5082 204.3674  1.00269065 34901"}}, "geometry": {"type": "Point", "coordinates": [34.29389008413282, -0.003834000413996387]}}]}